STARLINK-5661           
1 55343U 23013N   26197.53940535 -.00000152  00000+0  40090-5 0  9994
2 55343  43.0028 295.3635 0001565 267.0615  93.0058 15.27573479191383
STARLINK-5653           
1 55345U 23013Q   26197.59644032  .00000149  00000+0  14930-4 0  9993
2 55345  43.0018 281.0540 0001227 273.3992  86.6719 15.27574552191558
STARLINK-5631           
1 55346U 23013R   26197.54325913 -.00000228  00000+0  12342-5 0  9998
2 55346  43.0020 295.3853 0001567 263.1007  96.9667 15.27575628191380
STARLINK-5663           
1 55347U 23013S   26197.60735977 -.00000235  00000+0  99243-6 0  9995
2 55347  43.0027 295.0110 0001683 271.9502  88.1157 15.27576686191390
STARLINK-5609           
1 55348U 23013T   26197.55355220 -.00000372  00000+0 -39861-5 0  9991
2 55348  42.9994 295.4624 0001882 287.0525  73.0121 15.27579127191386
STARLINK-5666           
1 55349U 23013U   26197.62277945 -.00000208  00000+0  19647-5 0  9994
2 55349  43.0027 295.1300 0001261 263.7854  96.2854 15.27576598191391
STARLINK-5668           
1 55350U 23013V   26197.34197582  .00001057  00000+0  47945-4 0  9996
2 55350  43.0044 296.4579 0001776 272.5487  87.5162 15.27563692191357
STARLINK-5659           
1 55351U 23013W   26197.55225196  .00000637  00000+0  32669-4 0  9993
2 55351  43.0014 295.4521 0001258 266.9179  93.1529 15.27575780191385
STARLINK-5547           
1 55352U 23013X   26197.30661823  .00000345  00000+0  22054-4 0  9991
2 55352  43.0033 293.6457 0000560 289.2010  70.8781 15.27575921191381
STARLINK-5608           
1 55353U 23013Y   26197.28863718  .00000495  00000+0  27511-4 0  9995
2 55353  43.0004 293.5064 0001437 278.6850  81.3839 15.27588405191383
STARLINK-5649           
1 55354U 23013Z   26197.61379762  .00000464  00000+0  26398-4 0  9992
2 55354  42.9998 295.0578 0001449 264.8244  95.2442 15.27570721191395
STARLINK-5647           
1 55355U 23013AA  26197.62920111  .00000280  00000+0  19719-4 0  9999
2 55355  43.0034 295.1587 0001204 272.2082  87.8632 15.27574566191380
STARLINK-5651           
1 55357U 23013AC  26197.62535476  .00000678  00000+0  34159-4 0  9993
2 55357  43.0021 295.1396 0001412 269.8536  90.2154 15.27585881191393
STARLINK-5622           
1 55358U 23013AD  26197.55611597 -.00004235  00000+0 -14444-3 0  9994
2 55358  43.0021 295.4845 0001548 261.0461  99.0215 15.27583393191387
STARLINK-5641           
1 55359U 23013AE  26197.37358509  .00000187  00000+0  16322-4 0  9994
2 55359  42.9959 300.0982 0001118 206.6786 153.4008 15.27578663191311
STARLINK-5664           
1 55360U 23013AF  26197.62563295 -.00002137  00000+0 -68137-4 0  9994
2 55360  43.0021 313.2482 0001210 266.7027  93.3686 15.27588613191189
STARLINK-5665           
1 55361U 23013AG  26197.62584932 -.00003099  00000+0 -10309-3 0  9991
2 55361  43.0044 280.4374 0002157 280.8296  79.2313 15.27591471191564
STARLINK-5574           
1 55362U 23013AH  26197.58335648  .00025961  00000+0  95001-3 0  9997
2 55362  43.0033 280.5996 0002224 302.2397 219.1231 15.27564991  5756
STARLINK-5627           
1 55364U 23013AK  26197.63127581 -.00000457  00000+0 -70776-5 0  9999
2 55364  43.0028 298.5986 0001732 245.5780 114.4891 15.27573753191355
STARLINK-5639           
1 55365U 23013AL  26197.35638856 -.00000679  00000+0 -15142-4 0  9992
2 55365  43.0048 314.6781 0001927 264.8407  95.2224 15.27570971191149
STARLINK-5654           
1 55366U 23013AM  26197.55018383  .00000178  00000+0  15983-4 0  9997
2 55366  43.0032 280.7337 0001565 283.7759  76.2918 15.27578178191552
STARLINK-5635           
1 55367U 23013AN  26197.39000118 -.00001624  00000+0 -49521-4 0  9991
2 55367  43.0002 282.0942 0001177 265.8516  94.2201 15.27571277191523
STARLINK-5625           
1 55368U 23013AP  26197.29120996 -.00000269  00000+0 -22341-6 0  9995
2 55368  43.0045 282.2277 0001799 276.7664  83.2983 15.27575085191514
STARLINK-5644           
1 55369U 23013AQ  26197.61407089 -.00000136  00000+0  45660-5 0  9993
2 55369  43.0037 313.1701 0001217 266.1983  93.8729 15.27576959191183
STARLINK-5027           
1 55370U 23013AR  26197.62435494  .00001418  00000+0  61044-4 0  9993
2 55370  43.0032 313.2520 0001141 278.7683  81.3039 15.27584389191184
STARLINK-5590           
1 55371U 23013AS  26197.61021336  .00000435  00000+0  25338-4 0  9993
2 55371  43.0033 313.1418 0001140 272.3690  87.7031 15.27578863192103
STARLINK-5568           
1 55372U 23013AT  26197.59157629  .00000641  00000+0  32827-4 0  9996
2 55372  43.0030 310.4360 0001435 270.7303  89.3384 15.27578980191217
STARLINK-5581           
1 55373U 23013AU  26197.39878185  .00001168  00000+0  51956-4 0  9991
2 55373  43.0015 314.9754 0001722 267.6885  92.3770 15.27577727191149
STARLINK-5578           
1 55374U 23013AV  26197.59236819  .00000444  00000+0  25652-4 0  9996
2 55374  43.0031 313.8589 0001793 273.6911  86.3736 15.27578653191174
STARLINK-5588           
1 55375U 23013AW  26197.37051364 -.00000472  00000+0 -76246-5 0  9992
2 55375  43.0065 314.7796 0001670 280.5257  79.5407 15.27574988191149
