OBJECT_NAME,OBJECT_ID,EPOCH,MEAN_MOTION,ECCENTRICITY,INCLINATION,RA_OF_ASC_NODE,ARG_OF_PERICENTER,MEAN_ANOMALY,EPHEMERIS_TYPE,CLASSIFICATION_TYPE,NORAD_CAT_ID,ELEMENT_SET_NO,REV_AT_EPOCH,BSTAR,MEAN_MOTION_DOT,MEAN_MOTION_DDOT
STARLINK-5661,2023-013N,2026-07-16T12:56:44.622240,15.27573479,.00015654,43.0028,295.3635,267.0615,93.0058,0,U,55343,999,19138,.4009024E-5,-.152E-5,0
STARLINK-5653,2023-013Q,2026-07-16T14:18:52.443648,15.27574552,.00012277,43.0018,281.0540,273.3992,86.6719,0,U,55345,999,19155,.14930468E-4,.149E-5,0
STARLINK-5631,2023-013R,2026-07-16T13:02:17.588832,15.27575628,.00015677,43.0020,295.3853,263.1007,96.9667,0,U,55346,999,19138,.1234173E-5,-.228E-5,0
STARLINK-5663,2023-013S,2026-07-16T14:34:35.884128,15.27576686,.00016833,43.0027,295.0110,271.9502,88.1157,0,U,55347,999,19139,.992426E-6,-.235E-5,0
STARLINK-5609,2023-013T,2026-07-16T13:17:06.910080,15.27579127,.00018824,42.9994,295.4624,287.0525,73.0121,0,U,55348,999,19138,-.3986091E-5,-.372E-5,0
STARLINK-5666,2023-013U,2026-07-16T14:56:48.144480,15.27576598,.00012612,43.0027,295.1300,263.7854,96.2854,0,U,55349,999,19139,.1964693E-5,-.208E-5,0
STARLINK-5668,2023-013V,2026-07-16T08:12:26.710848,15.27563692,.00017762,43.0044,296.4579,272.5487,87.5162,0,U,55350,999,19135,.479453E-4,.1057E-4,0
STARLINK-5659,2023-013W,2026-07-16T13:15:14.569344,15.27575780,.00012584,43.0014,295.4521,266.9179,93.1529,0,U,55351,999,19138,.32669143E-4,.637E-5,0
STARLINK-5547,2023-013X,2026-07-16T07:21:31.815072,15.27575921,.00005608,43.0033,293.6457,289.2010,70.8781,0,U,55352,999,19138,.22053801E-4,.345E-5,0
STARLINK-5608,2023-013Y,2026-07-16T06:55:38.252352,15.27588405,.00014374,43.0004,293.5064,278.6850,81.3839,0,U,55353,999,19138,.27510668E-4,.495E-5,0
STARLINK-5649,2023-013Z,2026-07-16T14:43:52.114368,15.27570721,.00014492,42.9998,295.0578,264.8244,95.2442,0,U,55354,999,19139,.26398384E-4,.464E-5,0
STARLINK-5647,2023-013AA,2026-07-16T15:06:02.975904,15.27574566,.0001204,43.0034,295.1587,272.2082,87.8632,0,U,55355,999,19138,.19719244E-4,.28E-5,0
STARLINK-5651,2023-013AC,2026-07-16T15:00:30.651264,15.27585881,.00014123,43.0021,295.1396,269.8536,90.2154,0,U,55357,999,19139,.34158762E-4,.678E-5,0
STARLINK-5622,2023-013AD,2026-07-16T13:20:48.419808,15.27583393,.00015481,43.0021,295.4845,261.0461,99.0215,0,U,55358,999,19138,-.14443682E-3,-.4235E-4,0
STARLINK-5641,2023-013AE,2026-07-16T08:57:57.751776,15.27578663,.00011184,42.9959,300.0982,206.6786,153.4008,0,U,55359,999,19131,.16321763E-4,.187E-5,0
STARLINK-5664,2023-013AF,2026-07-16T15:00:54.686880,15.27588613,.00012107,43.0021,313.2482,266.7027,93.3686,0,U,55360,999,19118,-.68137187E-4,-.2137E-4,0
STARLINK-5665,2023-013AG,2026-07-16T15:01:13.381248,15.27591471,.00021571,43.0044,280.4374,280.8296,79.2313,0,U,55361,999,19156,-.10308804E-3,-.3099E-4,0
STARLINK-5574,2023-013AH,2026-07-16T14:00:01.999872,15.27564991,.00022242,43.0033,280.5996,302.2397,219.1231,0,U,55362,999,575,.95000724E-3,.25961E-3,0
STARLINK-5627,2023-013AK,2026-07-16T15:09:02.229984,15.27573753,.00017323,43.0028,298.5986,245.5780,114.4891,0,U,55364,999,19135,-.7077607E-5,-.457E-5,0
STARLINK-5639,2023-013AL,2026-07-16T08:33:11.971584,15.27570971,.00019273,43.0048,314.6781,264.8407,95.2224,0,U,55365,999,19114,-.15142131E-4,-.679E-5,0
STARLINK-5654,2023-013AM,2026-07-16T13:12:15.882912,15.27578178,.00015655,43.0032,280.7337,283.7759,76.2918,0,U,55366,999,19155,.15983108E-4,.178E-5,0
STARLINK-5635,2023-013AN,2026-07-16T09:21:36.101952,15.27571277,.00011773,43.0002,282.0942,265.8516,94.2201,0,U,55367,999,19152,-.49520945E-4,-.1624E-4,0
STARLINK-5625,2023-013AP,2026-07-16T06:59:20.540544,15.27575085,.0001799,43.0045,282.2277,276.7664,83.2983,0,U,55368,999,19151,-.223407E-6,-.269E-5,0
STARLINK-5644,2023-013AQ,2026-07-16T14:44:15.724896,15.27576959,.00012178,43.0037,313.1701,266.1983,93.8729,0,U,55369,999,19118,.4565969E-5,-.136E-5,0
STARLINK-5027,2023-013AR,2026-07-16T14:59:04.266816,15.27584389,.00011417,43.0032,313.2520,278.7683,81.3039,0,U,55370,999,19118,.61043657E-4,.1418E-4,0
STARLINK-5590,2023-013AS,2026-07-16T14:38:42.434304,15.27578863,.00011402,43.0033,313.1418,272.3690,87.7031,0,U,55371,999,19210,.25337807E-4,.435E-5,0
STARLINK-5568,2023-013AT,2026-07-16T14:11:52.191456,15.27578980,.00014354,43.0030,310.4360,270.7303,89.3384,0,U,55372,999,19121,.32827122E-4,.641E-5,0
STARLINK-5581,2023-013AU,2026-07-16T09:34:14.751840,15.27577727,.00017228,43.0015,314.9754,267.6885,92.3770,0,U,55373,999,19114,.51956172E-4,.1168E-4,0
STARLINK-5578,2023-013AV,2026-07-16T14:13:00.611616,15.27578653,.00017939,43.0031,313.8589,273.6911,86.3736,0,U,55374,999,19117,.25651715E-4,.444E-5,0
STARLINK-5588,2023-013AW,2026-07-16T08:53:32.378496,15.27574988,.00016708,43.0065,314.7796,280.5257,79.5407,0,U,55375,999,19114,-.762462E-5,-.472E-5,0
